IRIDIUM 26              
1 24903U 97043A   25276.66147458  .00001126  00000+0  37190-3 0  9996
2 24903  86.3925  65.0090 0002307  89.7189 270.4272 14.37236086472329
IRIDIUM 22              
1 24907U 97043E   25277.65674892  .00000856  00000+0  28772-3 0  9992
2 24907  86.3923  68.2263 0002156  87.1976 272.9468 14.36039799472488
DUMMY MASS 1            
1 24925U 97048A   25277.49903472  .00000993  00000+0  10751-3 0  9998
2 24925  86.3293  84.7519 0008777 111.2601 248.9562 14.87082556521370
DUMMY MASS 2            
1 24926U 97048B   25277.74861936  .00000981  00000+0  10683-3 0  9996
2 24926  86.3291  86.2657 0009329 120.3560 239.8588 14.86834183521184
IRIDIUM 29              
1 24944U 97051A   25277.77965699  .00000940  00000+0  31365-3 0  9999
2 24944  86.3896  97.9091 0001924  86.9049 273.2368 14.36561956469008
IRIDIUM 33              
1 24946U 97051C   25277.74299007  .00000712  00000+0  24327-3 0  9998
2 24946  86.3813  97.1941 0009975  82.5595 277.6735 14.34961161468451
IRIDIUM 28              
1 24948U 97051E   25277.47511579  .00000930  00000+0  30441-3 0  9997
2 24948  86.3901  95.4880 0002665  87.7055 272.4447 14.37467857469541
IRIDIUM 36              
1 24967U 97056C   25277.83884054  .00000709  00000+0  22941-3 0  9994
2 24967  86.3945 126.9650 0002304  81.7319 278.4139 14.37693396467970
